OBJECT_NAME,OBJECT_ID,EPOCH,MEAN_MOTION,ECCENTRICITY,INCLINATION,RA_OF_ASC_NODE,ARG_OF_PERICENTER,MEAN_ANOMALY,EPHEMERIS_TYPE,CLASSIFICATION_TYPE,NORAD_CAT_ID,ELEMENT_SET_NO,REV_AT_EPOCH,BSTAR,MEAN_MOTION_DOT,MEAN_MOTION_DDOT
HAWK-5A,2022-057AB,2026-07-23T09:47:03.501024,15.52548930,.0002919,97.6637,5.6359,296.9642,63.1311,0,U,52757,999,23196,.30144279E-3,.18409E-3,0
HAWK-6B,2023-011A,2026-07-23T04:20:30.169536,15.23205605,.00045868,40.4981,142.0832,280.0862,79.9430,0,U,55324,999,19333,.18476158E-3,.427E-4,0
HAWK-6C,2023-011C,2026-07-23T04:19:35.563008,15.23204661,.00050523,40.4973,138.9222,275.8701,84.1532,0,U,55326,999,19334,.17736657E-3,.4091E-4,0
HAWK-6A,2023-011D,2026-07-23T05:54:03.461760,15.23206114,.00047795,40.4985,140.1672,272.9929,87.0333,0,U,55327,999,19335,.18101733E-3,.418E-4,0
HAWK-7A,2023-054P,2026-07-23T12:46:30.176544,15.27697970,.00009446,97.2652,90.9451,262.9363,97.1769,0,U,56191,999,18257,.2095279E-3,.5599E-4,0
HAWK-7B,2023-054R,2026-07-23T08:03:26.444736,15.27697064,.000042,97.2681,89.0298,353.5701,6.5533,0,U,56193,999,18254,.20352589E-3,.5436E-4,0
HAWK-7C,2023-054Y,2026-07-23T14:20:32.406720,15.27699046,.0000346,97.2655,90.0429,242.8511,117.2694,0,U,56200,999,18258,.20472478E-3,.5469E-4,0
