HAWK-5A                 
1 52757U 22057AB  26204.40767941  .00018409  00000+0  30144-3 0  9990
2 52757  97.6637   5.6359 0002919 296.9642  63.1311 15.52548930231961
HAWK-6B                 
1 55324U 23011A   26204.18090474  .00004270  00000+0  18476-3 0  9994
2 55324  40.4981 142.0832 0004586 280.0862  79.9430 15.23205605193336
HAWK-6C                 
1 55326U 23011C   26204.18027272  .00004091  00000+0  17737-3 0  9992
2 55326  40.4973 138.9222 0005052 275.8701  84.1532 15.23204661193342
HAWK-6A                 
1 55327U 23011D   26204.24587340  .00004180  00000+0  18102-3 0  9993
2 55327  40.4985 140.1672 0004779 272.9929  87.0333 15.23206114193352
HAWK-7A                 
1 56191U 23054P   26204.53229371  .00005599  00000+0  20953-3 0  9991
2 56191  97.2652  90.9451 0000944 262.9363  97.1769 15.27697970182576
HAWK-7B                 
1 56193U 23054R   26204.33572274  .00005436  00000+0  20353-3 0  9998
2 56193  97.2681  89.0298 0000420 353.5701   6.5533 15.27697064182544
HAWK-7C                 
1 56200U 23054Y   26204.59759730  .00005469  00000+0  20472-3 0  9997
2 56200  97.2655  90.0429 0000346 242.8511 117.2694 15.27699046182582
